SatCatId,ObjectName,LaunchYear,OrbitalPeriod,LaunchMass,StatusCode,Inclination,Status,UcsData,OrbitClassEstimated,LaunchSiteCountry,Owner,UseType,Purpose,LaunchVehicleClass,TLE1,TLE2,MeanMotion,Eccentricity,OrbitClass
53789,STARLINK-4666,2022,95.44,260.0,+,53.22,Active,1,LEO,USA,USA,Commercial,Communications,Falcon,1 53789U 22111S   24131.41718156  .00002850  00000+0  19702-3 0  9999,2 53789  53.2197  33.8384 0001457  97.8446 262.2711 15.08856039 92800,15.08856039,0.0001457,LEO
53790,STARLINK-4734,2022,95.44,260.0,+,53.22,Active,1,LEO,USA,USA,Commercial,Communications,Falcon,1 53790U 22111T   24131.43193240 -.00002003  00000+0 -10785-3 0  9998,2 53790  53.2178  33.9275 0001245 108.6318 251.4809 15.08832433 92816,15.08832433,0.0001245,LEO
53792,STARLINK-4739,2022,95.44,260.0,+,53.22,Active,1,LEO,USA,USA,Commercial,Communications,Falcon,1 53792U 22111V   24131.14590867  .00003908  00000+0  26347-3 0  9998,2 53792  53.2167  35.6820 0001000 100.6807 259.4298 15.08839762 92750,15.08839762,0.0001,LEO
53793,STARLINK-4728,2022,95.44,260.0,+,53.22,Active,1,LEO,USA,USA,Commercial,Communications,Falcon,1 53793U 22111W   24131.15959881  .00007049  00000+0  46041-3 0  9998,2 53793  53.2179  35.0687 0001194  91.1716 268.9413 15.08851041 92765,15.08851041,0.0001194,LEO
53794,STARLINK-4730,2022,95.43,260.0,+,53.22,Active,1,LEO,USA,USA,Commercial,Communications,Falcon,1 53794U 22111X   24131.42920023 -.00000141  00000+0  92408-5 0  9992,2 53794  53.2168  33.9056 0000946 103.2426 256.8671 15.08843065 92802,15.08843065,9.46e-05,LEO
53795,STARLINK-4742,2022,95.43,260.0,+,53.22,Active,1,LEO,USA,USA,Commercial,Communications,Falcon,1 53795U 22111Y   24131.01606083  .00010456  00000+0  67375-3 0  9997,2 53795  53.2179  35.5953 0001180  99.1533 260.9593 15.08856975 92748,15.08856975,0.000118,LEO
53796,STARLINK-4721,2022,95.44,260.0,+,53.22,Active,1,LEO,USA,USA,Commercial,Communications,Falcon,1 53796U 22111Z   24130.95534064 -.00000783  00000+0 -31112-4 0  9994,2 53796  53.2199  15.8521 0001174  97.4511 262.6615 15.08837835 92291,15.08837835,0.0001174,LEO
53797,STARLINK-4723,2022,95.44,260.0,+,53.22,Active,1,LEO,USA,USA,Commercial,Communications,Falcon,1 53797U 22111AA  24131.46868510  .00001043  00000+0  83596-4 0  9999,2 53797  53.2197  33.4458 0001343  90.4593 269.6553 15.08844857 92803,15.08844857,0.0001343,LEO
53798,STARLINK-4712,2022,95.44,260.0,+,53.22,Active,1,LEO,USA,USA,Commercial,Communications,Falcon,1 53798U 22111AB  24131.14117653  .00003181  00000+0  21783-3 0  9994,2 53798  53.2181  34.9557 0001451 101.4742 258.6414 15.08843665 92756,15.08843665,0.0001451,LEO
53799,STARLINK-4710,2022,95.44,260.0,+,53.22,Active,1,LEO,USA,USA,Commercial,Communications,Falcon,1 53799U 22111AC  24131.11736556  .00013947  00000+0  89293-3 0  9992,2 53799  53.2173  25.5288 0001418 127.9559 232.1562 15.08827722 92888,15.08827722,0.0001418,LEO
53800,STARLINK-4720,2022,95.44,260.0,+,53.22,Active,1,LEO,USA,USA,Commercial,Communications,Falcon,1 53800U 22111AD  24131.43653046  .00007407  00000+0  48270-3 0  9996,2 53800  53.2177  23.9740 0001042  53.2499 306.8589 15.08861826 92934,15.08861826,0.0001042,LEO
53801,STARLINK-4715,2022,95.33,260.0,+,53.22,Active,1,LEO,USA,USA,Commercial,Communications,Falcon,1 53801U 22111AE  24131.08955717  .00041856  00000+0  25153-2 0  9998,2 53801  53.2171  25.3616 0000895  97.8660 262.2434 15.10500551 92882,15.10500551,8.95e-05,LEO
53802,STARLINK-4726,2022,95.44,260.0,+,53.22,Active,1,LEO,USA,USA,Commercial,Communications,Falcon,1 53802U 22111AF  24131.42916562  .00030267  00000+0  19105-2 0  9996,2 53802  53.2176  23.9240 0001200  75.2333 284.8792 15.08862816 92938,15.08862816,0.00012,LEO
53803,STARLINK-4727,2022,95.44,260.0,+,53.22,Active,1,LEO,USA,USA,Commercial,Communications,Falcon,1 53803U 22111AG  24131.37721612  .00002530  00000+0  17698-3 0  9999,2 53803  53.2184   9.3426 0001343  98.5430 261.5714 15.08839496 93133,15.08839496,0.0001343,LEO
53804,STARLINK-4729,2022,95.44,260.0,+,53.22,Active,1,LEO,USA,USA,Commercial,Communications,Falcon,1 53804U 22111AH  24131.42137641  .00003623  00000+0  24558-3 0  9996,2 53804  53.2172  18.8782 0001623  81.7292 278.3884 15.08847085 93005,15.08847085,0.0001623,LEO
53805,STARLINK-4763,2022,95.44,260.0,+,53.22,Active,1,LEO,USA,USA,Commercial,Communications,Falcon,1 53805U 22111AJ  24131.38554027  .00001616  00000+0  11956-3 0  9991,2 53805  53.2186   9.3862 0001191  79.4565 280.6561 15.08842189 93134,15.08842189,0.0001191,LEO
53806,STARLINK-4768,2022,95.44,260.0,+,53.22,Active,1,LEO,USA,USA,Commercial,Communications,Falcon,1 53806U 22111AK  24131.35878055  .00011696  00000+0  75125-3 0  9996,2 53806  53.2200   9.2242 0001437 112.6087 247.5057 15.08863177 93137,15.08863177,0.0001437,LEO
53807,BLUEWALKER 3,2022,94.39,-1.0,+,53.24,Active,0,LEO,USA,USA,Unknown,Unknown,Unknown,1 53807U 22111AL  24131.07688486  .00010483  00000+0  42080-3 0  9990,2 53807  53.2365   9.1769 0007829 351.0026   9.0832 15.25518323 92417,15.25518323,0.0007829,LEO
53813,CHINASAT 1E (ZX 1E),2022,1436.1,2500.0,+,0.06,Active,1,GSO,PRC,China,Commercial,Communications,Long March,1 53813U 22112A   24130.88104844 -.00000152  00000+0  00000+0 0  9992,2 53813   0.0554  64.7813 0001455 340.1847 221.8078  1.00271288  6134,1.00271288,0.0001455,GEO
53815,STRIX-1,2022,95.44,150.0,+,97.56,Active,1,LEO,New Zealand,Japan,Commercial,Earth Observation,Electron,1 53815U 22113A   24131.52331638  .00013441  00000+0  85668-3 0  9991,2 53815  97.5599 182.3590 0008973  64.4134 295.8021 15.08819314 90573,15.08819314,0.0008973,LEO
53818,STARLINK-4749,2022,94.96,260.0,+,53.22,Active,1,LEO,USA,USA,Commercial,Communications,Falcon,1 53818U 22114A   24131.13057400 -.00001153  00000+0 -42904-4 0  9990,2 53818  53.2187  41.7015 0001138  89.5303 270.5822 15.16393249 92349,15.16393249,0.0001138,LEO
53819,STARLINK-4738,2022,95.44,260.0,+,53.22,Active,1,LEO,USA,USA,Commercial,Communications,Falcon,1 53819U 22114B   24131.52852195  .00008791  00000+0  56955-3 0  9991,2 53819  53.2173  63.4847 0001741  85.4606 274.6585 15.08851752 91967,15.08851752,0.0001741,LEO
53820,STARLINK-4758,2022,95.44,260.0,+,53.22,Active,1,LEO,USA,USA,Commercial,Communications,Falcon,1 53820U 22114C   24131.23049243  .00001068  00000+0  85211-4 0  9991,2 53820  53.2194  65.1693 0001359  95.7551 264.3596 15.08838029 91913,15.08838029,0.0001359,LEO
53821,STARLINK-4752,2022,95.44,260.0,+,53.22,Active,1,LEO,USA,USA,Commercial,Communications,Falcon,1 53821U 22114D   24131.37814791 -.00000055  00000+0  14663-4 0  9994,2 53821  53.2181   9.0997 0001285  92.1494 267.9645 15.08833732 92718,15.08833732,0.0001285,LEO
53823,STARLINK-4748,2022,95.44,260.0,+,53.22,Active,1,LEO,USA,USA,Commercial,Communications,Falcon,1 53823U 22114F   24131.40203871  .00004066  00000+0  27329-3 0  9998,2 53823  53.2174  19.1690 0001161  91.2872 268.8253 15.08852310 92579,15.0885231,0.0001161,LEO
53824,STARLINK-4757,2022,95.44,260.0,+,53.22,Active,1,LEO,USA,USA,Commercial,Communications,Falcon,1 53824U 22114G   24131.55063365  .00012195  00000+0  78260-3 0  9999,2 53824  53.2190  63.6153 0001486  99.9073 260.2087 15.08857255 91870,15.08857255,0.0001486,LEO
53825,STARLINK-4751,2022,95.44,260.0,+,53.22,Active,1,LEO,USA,USA,Commercial,Communications,Falcon,1 53825U 22114H   24131.22312654 -.00001767  00000+0 -92949-4 0  9998,2 53825  53.2187  65.1277 0001388  82.7961 277.3189 15.08833045 91916,15.08833045,0.0001388,LEO
53826,STARLINK-4756,2022,95.44,260.0,+,53.22,Active,1,LEO,USA,USA,Commercial,Communications,Falcon,1 53826U 22114J   24131.53588695  .00003124  00000+0  21422-3 0  9997,2 53826  53.2183  63.5258 0001032  80.7234 279.3874 15.08853205 91969,15.08853205,0.0001032,LEO
53827,STARLINK-4764,2022,95.44,260.0,+,53.22,Active,1,LEO,USA,USA,Commercial,Communications,Falcon,1 53827U 22114K   24131.21575058  .00008157  00000+0  52986-3 0  9992,2 53827  53.2171  65.0781 0001374  97.7250 262.3898 15.08850906 91918,15.08850906,0.0001374,LEO
53828,STARLINK-4760,2022,95.44,260.0,+,53.22,Active,1,LEO,USA,USA,Commercial,Communications,Falcon,1 53828U 22114L   24131.06853650  .00000502  00000+0  49611-4 0  9991,2 53828  53.2191  65.5815 0001422  79.5716 280.5436 15.08835310 91892,15.0883531,0.0001422,LEO
53829,STARLINK-4759,2022,95.44,260.0,+,53.22,Active,1,LEO,USA,USA,Commercial,Communications,Falcon,1 53829U 22114M   24131.54326143  .00027711  00000+0  17513-2 0  9992,2 53829  53.2188  63.5696 0001408 102.7964 257.3186 15.08862290 91961,15.0886229,0.0001408,LEO
53830,STARLINK-4761,2022,95.44,260.0,+,53.22,Active,1,LEO,USA,USA,Commercial,Communications,Falcon,1 53830U 22114N   24131.52484249  .00001634  00000+0  12070-3 0  9994,2 53830  53.2195  63.4545 0001402  82.9782 277.1369 15.08844021 91969,15.08844021,0.0001402,LEO
53831,STARLINK-4649,2022,95.44,260.0,+,53.22,Active,1,LEO,USA,USA,Commercial,Communications,Falcon,1 53831U 22114P   24131.14214264  .00002912  00000+0  20095-3 0  9997,2 53831  53.2186  65.3334 0001434  85.8204 274.2952 15.08842894 91909,15.08842894,0.0001434,LEO
53832,STARLINK-4747,2022,95.44,260.0,+,53.22,Active,1,LEO,USA,USA,Commercial,Communications,Falcon,1 53832U 22114Q   24131.51747976  .00001473  00000+0  11064-3 0  9997,2 53832  53.2189  63.4093 0001344  88.5079 271.6067 15.08834351 91967,15.08834351,0.0001344,LEO
53833,STARLINK-4771,2022,95.44,260.0,+,53.22,Active,1,LEO,USA,USA,Commercial,Communications,Falcon,1 53833U 22114R   24131.52949079  .00001695  00000+0  12454-3 0  9997,2 53833  53.2159  63.4832 0001118  92.3356 267.7765 15.08837551 91962,15.08837551,0.0001118,LEO
53834,STARLINK-4737,2022,95.44,260.0,+,53.22,Active,1,LEO,USA,USA,Commercial,Communications,Falcon,1 53834U 22114S   24131.24514111  .00010130  00000+0  65342-3 0  9990,2 53834  53.2182  64.5528 0001268  87.1781 272.9356 15.08851751 91921,15.08851751,0.0001268,LEO
